<?xml version="1.0" encoding="UTF-8"?>
<ndm xmlns:xsi="http://www.w3.org/2001/XMLSchema-instance" xsi:noNamespaceSchemaLocation="https://sanaregistry.org/r/ndmxml_unqualified/ndmxml-2.0.0-master-2.0.xsd">
<omm id="CCSDS_OMM_VERS" version="2.0">
<header><CREATION_DATE/><ORIGINATOR/></header><body><segment><metadata><OBJECT_NAME>KUIPER-00053</OBJECT_NAME><OBJECT_ID>2025-134P</OBJECT_ID><CENTER_NAME>EARTH</CENTER_NAME><REF_FRAME>TEME</REF_FRAME><TIME_SYSTEM>UTC</TIME_SYSTEM><MEAN_ELEMENT_THEORY>SGP4</MEAN_ELEMENT_THEORY></metadata><data><meanElements><EPOCH>2025-08-20T19:05:24.247392</EPOCH><MEAN_MOTION>15.37079529</MEAN_MOTION><ECCENTRICITY>.0002019</ECCENTRICITY><INCLINATION>51.8774</INCLINATION><RA_OF_ASC_NODE>49.2546</RA_OF_ASC_NODE><ARG_OF_PERICENTER>303.6202</ARG_OF_PERICENTER><MEAN_ANOMALY>56.4591</MEAN_ANOMALY></meanElements><tleParameters><EPHEMERIS_TYPE>0</EPHEMERIS_TYPE><CLASSIFICATION_TYPE>U</CLASSIFICATION_TYPE><NORAD_CAT_ID>64513</NORAD_CAT_ID><ELEMENT_SET_NO>999</ELEMENT_SET_NO><REV_AT_EPOCH>1021</REV_AT_EPOCH><BSTAR>.86596E-3</BSTAR><MEAN_MOTION_DOT>.31659E-3</MEAN_MOTION_DOT><MEAN_MOTION_DDOT>0</MEAN_MOTION_DDOT></tleParameters></data></segment></body></omm>
<omm id="CCSDS_OMM_VERS" version="2.0">
<header><CREATION_DATE/><ORIGINATOR/></header><body><segment><metadata><OBJECT_NAME>KUIPER-00054</OBJECT_NAME><OBJECT_ID>2025-134Q</OBJECT_ID><CENTER_NAME>EARTH</CENTER_NAME><REF_FRAME>TEME</REF_FRAME><TIME_SYSTEM>UTC</TIME_SYSTEM><MEAN_ELEMENT_THEORY>SGP4</MEAN_ELEMENT_THEORY></metadata><data><meanElements><EPOCH>2025-08-20T17:42:08.640864</EPOCH><MEAN_MOTION>15.37002252</MEAN_MOTION><ECCENTRICITY>.0003282</ECCENTRICITY><INCLINATION>51.8764</INCLINATION><RA_OF_ASC_NODE>49.6108</RA_OF_ASC_NODE><ARG_OF_PERICENTER>308.7312</ARG_OF_PERICENTER><MEAN_ANOMALY>51.3381</MEAN_ANOMALY></meanElements><tleParameters><EPHEMERIS_TYPE>0</EPHEMERIS_TYPE><CLASSIFICATION_TYPE>U</CLASSIFICATION_TYPE><NORAD_CAT_ID>64514</NORAD_CAT_ID><ELEMENT_SET_NO>999</ELEMENT_SET_NO><REV_AT_EPOCH>1020</REV_AT_EPOCH><BSTAR>.75744E-3</BSTAR><MEAN_MOTION_DOT>.2756E-3</MEAN_MOTION_DOT><MEAN_MOTION_DDOT>0</MEAN_MOTION_DDOT></tleParameters></data></segment></body></omm>
<omm id="CCSDS_OMM_VERS" version="2.0">
<header><CREATION_DATE/><ORIGINATOR/></header><body><segment><metadata><OBJECT_NAME>KUIPER-00055</OBJECT_NAME><OBJECT_ID>2025-134R</OBJECT_ID><CENTER_NAME>EARTH</CENTER_NAME><REF_FRAME>TEME</REF_FRAME><TIME_SYSTEM>UTC</TIME_SYSTEM><MEAN_ELEMENT_THEORY>SGP4</MEAN_ELEMENT_THEORY></metadata><data><meanElements><EPOCH>2025-08-20T18:40:30.885600</EPOCH><MEAN_MOTION>15.37569780</MEAN_MOTION><ECCENTRICITY>.000126</ECCENTRICITY><INCLINATION>51.8760</INCLINATION><RA_OF_ASC_NODE>49.1427</RA_OF_ASC_NODE><ARG_OF_PERICENTER>266.6824</ARG_OF_PERICENTER><MEAN_ANOMALY>93.4019</MEAN_ANOMALY></meanElements><tleParameters><EPHEMERIS_TYPE>0</EPHEMERIS_TYPE><CLASSIFICATION_TYPE>U</CLASSIFICATION_TYPE><NORAD_CAT_ID>64515</NORAD_CAT_ID><ELEMENT_SET_NO>999</ELEMENT_SET_NO><REV_AT_EPOCH>1021</REV_AT_EPOCH><BSTAR>.7476E-3</BSTAR><MEAN_MOTION_DOT>.27704E-3</MEAN_MOTION_DOT><MEAN_MOTION_DDOT>0</MEAN_MOTION_DDOT></tleParameters></data></segment></body></omm>
<omm id="CCSDS_OMM_VERS" version="2.0">
<header><CREATION_DATE/><ORIGINATOR/></header><body><segment><metadata><OBJECT_NAME>KUIPER-00056</OBJECT_NAME><OBJECT_ID>2025-134S</OBJECT_ID><CENTER_NAME>EARTH</CENTER_NAME><REF_FRAME>TEME</REF_FRAME><TIME_SYSTEM>UTC</TIME_SYSTEM><MEAN_ELEMENT_THEORY>SGP4</MEAN_ELEMENT_THEORY></metadata><data><meanElements><EPOCH>2025-08-20T17:54:46.643616</EPOCH><MEAN_MOTION>15.36743830</MEAN_MOTION><ECCENTRICITY>.0003605</ECCENTRICITY><INCLINATION>51.8736</INCLINATION><RA_OF_ASC_NODE>49.6588</RA_OF_ASC_NODE><ARG_OF_PERICENTER>305.3695</ARG_OF_PERICENTER><MEAN_ANOMALY>54.6954</MEAN_ANOMALY></meanElements><tleParameters><EPHEMERIS_TYPE>0</EPHEMERIS_TYPE><CLASSIFICATION_TYPE>U</CLASSIFICATION_TYPE><NORAD_CAT_ID>64516</NORAD_CAT_ID><ELEMENT_SET_NO>999</ELEMENT_SET_NO><REV_AT_EPOCH>1020</REV_AT_EPOCH><BSTAR>.91102E-3</BSTAR><MEAN_MOTION_DOT>.32973E-3</MEAN_MOTION_DOT><MEAN_MOTION_DDOT>0</MEAN_MOTION_DDOT></tleParameters></data></segment></body></omm>
<omm id="CCSDS_OMM_VERS" version="2.0">
<header><CREATION_DATE/><ORIGINATOR/></header><body><segment><metadata><OBJECT_NAME>KUIPER-00057</OBJECT_NAME><OBJECT_ID>2025-134T</OBJECT_ID><CENTER_NAME>EARTH</CENTER_NAME><REF_FRAME>TEME</REF_FRAME><TIME_SYSTEM>UTC</TIME_SYSTEM><MEAN_ELEMENT_THEORY>SGP4</MEAN_ELEMENT_THEORY></metadata><data><meanElements><EPOCH>2025-08-20T18:57:27.894816</EPOCH><MEAN_MOTION>15.34468359</MEAN_MOTION><ECCENTRICITY>.0007754</ECCENTRICITY><INCLINATION>51.8693</INCLINATION><RA_OF_ASC_NODE>49.9198</RA_OF_ASC_NODE><ARG_OF_PERICENTER>321.0628</ARG_OF_PERICENTER><MEAN_ANOMALY>38.9799</MEAN_ANOMALY></meanElements><tleParameters><EPHEMERIS_TYPE>0</EPHEMERIS_TYPE><CLASSIFICATION_TYPE>U</CLASSIFICATION_TYPE><NORAD_CAT_ID>64517</NORAD_CAT_ID><ELEMENT_SET_NO>999</ELEMENT_SET_NO><REV_AT_EPOCH>1020</REV_AT_EPOCH><BSTAR>.59898E-3</BSTAR><MEAN_MOTION_DOT>.19991E-3</MEAN_MOTION_DOT><MEAN_MOTION_DDOT>0</MEAN_MOTION_DDOT></tleParameters></data></segment></body></omm>
<omm id="CCSDS_OMM_VERS" version="2.0">
<header><CREATION_DATE/><ORIGINATOR/></header><body><segment><metadata><OBJECT_NAME>KUIPER-00058</OBJECT_NAME><OBJECT_ID>2025-134U</OBJECT_ID><CENTER_NAME>EARTH</CENTER_NAME><REF_FRAME>TEME</REF_FRAME><TIME_SYSTEM>UTC</TIME_SYSTEM><MEAN_ELEMENT_THEORY>SGP4</MEAN_ELEMENT_THEORY></metadata><data><meanElements><EPOCH>2025-08-20T18:13:02.249184</EPOCH><MEAN_MOTION>15.36348687</MEAN_MOTION><ECCENTRICITY>.0005701</ECCENTRICITY><INCLINATION>51.8735</INCLINATION><RA_OF_ASC_NODE>49.7346</RA_OF_ASC_NODE><ARG_OF_PERICENTER>316.1161</ARG_OF_PERICENTER><MEAN_ANOMALY>43.9372</MEAN_ANOMALY></meanElements><tleParameters><EPHEMERIS_TYPE>0</EPHEMERIS_TYPE><CLASSIFICATION_TYPE>U</CLASSIFICATION_TYPE><NORAD_CAT_ID>64518</NORAD_CAT_ID><ELEMENT_SET_NO>999</ELEMENT_SET_NO><REV_AT_EPOCH>1020</REV_AT_EPOCH><BSTAR>.90638E-3</BSTAR><MEAN_MOTION_DOT>.32391E-3</MEAN_MOTION_DOT><MEAN_MOTION_DDOT>0</MEAN_MOTION_DDOT></tleParameters></data></segment></body></omm>
<omm id="CCSDS_OMM_VERS" version="2.0">
<header><CREATION_DATE/><ORIGINATOR/></header><body><segment><metadata><OBJECT_NAME>KUIPER-00059</OBJECT_NAME><OBJECT_ID>2025-134V</OBJECT_ID><CENTER_NAME>EARTH</CENTER_NAME><REF_FRAME>TEME</REF_FRAME><TIME_SYSTEM>UTC</TIME_SYSTEM><MEAN_ELEMENT_THEORY>SGP4</MEAN_ELEMENT_THEORY></metadata><data><meanElements><EPOCH>2025-08-20T18:45:09.990432</EPOCH><MEAN_MOTION>15.37516862</MEAN_MOTION><ECCENTRICITY>.0001731</ECCENTRICITY><INCLINATION>51.8765</INCLINATION><RA_OF_ASC_NODE>49.1610</RA_OF_ASC_NODE><ARG_OF_PERICENTER>281.7999</ARG_OF_PERICENTER><MEAN_ANOMALY>78.2793</MEAN_ANOMALY></meanElements><tleParameters><EPHEMERIS_TYPE>0</EPHEMERIS_TYPE><CLASSIFICATION_TYPE>U</CLASSIFICATION_TYPE><NORAD_CAT_ID>64519</NORAD_CAT_ID><ELEMENT_SET_NO>999</ELEMENT_SET_NO><REV_AT_EPOCH>1021</REV_AT_EPOCH><BSTAR>.83752E-3</BSTAR><MEAN_MOTION_DOT>.31043E-3</MEAN_MOTION_DOT><MEAN_MOTION_DDOT>0</MEAN_MOTION_DDOT></tleParameters></data></segment></body></omm>
<omm id="CCSDS_OMM_VERS" version="2.0">
<header><CREATION_DATE/><ORIGINATOR/></header><body><segment><metadata><OBJECT_NAME>KUIPER-00060</OBJECT_NAME><OBJECT_ID>2025-134W</OBJECT_ID><CENTER_NAME>EARTH</CENTER_NAME><REF_FRAME>TEME</REF_FRAME><TIME_SYSTEM>UTC</TIME_SYSTEM><MEAN_ELEMENT_THEORY>SGP4</MEAN_ELEMENT_THEORY></metadata><data><meanElements><EPOCH>2025-08-20T18:55:32.923200</EPOCH><MEAN_MOTION>15.37418206</MEAN_MOTION><ECCENTRICITY>.0002419</ECCENTRICITY><INCLINATION>51.8771</INCLINATION><RA_OF_ASC_NODE>49.2095</RA_OF_ASC_NODE><ARG_OF_PERICENTER>276.3847</ARG_OF_PERICENTER><MEAN_ANOMALY>83.6864</MEAN_ANOMALY></meanElements><tleParameters><EPHEMERIS_TYPE>0</EPHEMERIS_TYPE><CLASSIFICATION_TYPE>U</CLASSIFICATION_TYPE><NORAD_CAT_ID>64520</NORAD_CAT_ID><ELEMENT_SET_NO>999</ELEMENT_SET_NO><REV_AT_EPOCH>1020</REV_AT_EPOCH><BSTAR>.63377E-3</BSTAR><MEAN_MOTION_DOT>.23297E-3</MEAN_MOTION_DOT><MEAN_MOTION_DDOT>0</MEAN_MOTION_DDOT></tleParameters></data></segment></body></omm>

</ndm>
