KUIPER-00053            
1 64513U 25134P   25232.79541953  .00031659  00000+0  86596-3 0  9991
2 64513  51.8774  49.2546 0002019 303.6202  56.4591 15.37079529 10213
KUIPER-00054            
1 64514U 25134Q   25232.73760001  .00027560  00000+0  75744-3 0  9992
2 64514  51.8764  49.6108 0003282 308.7312  51.3381 15.37002252 10201
KUIPER-00055            
1 64515U 25134R   25232.77813525  .00027704  00000+0  74760-3 0  9994
2 64515  51.8760  49.1427 0001260 266.6824  93.4019 15.37569780 10211
KUIPER-00056            
1 64516U 25134S   25232.74637319  .00032973  00000+0  91102-3 0  9990
2 64516  51.8736  49.6588 0003605 305.3695  54.6954 15.36743830 10205
KUIPER-00057            
1 64517U 25134T   25232.78990619  .00019991  00000+0  59898-3 0  9991
2 64517  51.8693  49.9198 0007754 321.0628  38.9799 15.34468359 10208
KUIPER-00058            
1 64518U 25134U   25232.75905381  .00032391  00000+0  90638-3 0  9997
2 64518  51.8735  49.7346 0005701 316.1161  43.9372 15.36348687 10202
KUIPER-00059            
1 64519U 25134V   25232.78136563  .00031043  00000+0  83752-3 0  9991
2 64519  51.8765  49.1610 0001731 281.7999  78.2793 15.37516862 10211
KUIPER-00060            
1 64520U 25134W   25232.78857550  .00023297  00000+0  63377-3 0  9992
2 64520  51.8771  49.2095 0002419 276.3847  83.6864 15.37418206 10205
